{
    "links": {
        "self": "http://www.neowsapp.com/rest/v1/neo/3092419?api_key=iIulBulltgU6a56xZRHN4H3l9WmuAYTsLGpBGhQ2"
    },
    "id": "3092419",
    "neo_reference_id": "3092419",
    "name": "(2001 VB)",
    "designation": "2001 VB",
    "nasa_jpl_url": "http://ssd.jpl.nasa.gov/sbdb.cgi?sstr=3092419",
    "absolute_magnitude_h": 18.4,
    "estimated_diameter": {
        "kilometers": {
            "estimated_diameter_min": 0.5553349116,
            "estimated_diameter_max": 1.2417666126
        },
        "meters": {
            "estimated_diameter_min": 555.334911581,
            "estimated_diameter_max": 1241.766612574
        },
        "miles": {
            "estimated_diameter_min": 0.3450690093,
            "estimated_diameter_max": 0.7715977618
        },
        "feet": {
            "estimated_diameter_min": 1821.9649913114,
            "estimated_diameter_max": 4074.0375731972
        }
    },
    "is_potentially_hazardous_asteroid": true,
    "close_approach_data": [
        {
            "close_approach_date": "2001-11-07",
            "close_approach_date_full": "2001-Nov-07 07:15",
            "epoch_date_close_approach": 1005117300000,
            "relative_velocity": {
                "kilometers_per_second": "32.4855978705",
                "kilometers_per_hour": "116948.1523337384",
                "miles_per_hour": "72667.0338764832"
            },
            "miss_distance": {
                "astronomical": "0.163477108",
                "lunar": "63.592595012",
                "kilometers": "24455827.15055996",
                "miles": "15196146.336689048"
            },
            "orbiting_body": "Earth"
        },
        {
            "close_approach_date": "2002-01-09",
            "close_approach_date_full": "2002-Jan-09 05:34",
            "epoch_date_close_approach": 1010554440000,
            "relative_velocity": {
                "kilometers_per_second": "37.398755628",
                "kilometers_per_hour": "134635.5202608371",
                "miles_per_hour": "83657.2764642962"
            },
            "miss_distance": {
                "astronomical": "0.0220839649",
                "lunar": "8.5906623461",
                "kilometers": "3303714.110194763",
                "miles": "2052832.7569552094"
            },
            "orbiting_body": "Venus"
        }
    ],
    "orbital_data": {
        "orbit_id": "14",
        "orbit_determination_date": "2017-04-06 09:15:54",
        "first_observation_date": "2001-11-04",
        "last_observation_date": "2001-11-11",
        "data_arc_in_days": 7,
        "observations_used": 53,
        "orbit_uncertainty": "9",
        "minimum_orbit_intersection": ".0225479",
        "jupiter_tisserand_invariant": "2.755",
        "epoch_osculation": "2452220.5",
        "eccentricity": ".9003508047994189",
        "semi_major_axis": "2.395285555048778",
        "inclination": "9.529788041459813",
        "ascending_node_longitude": "306.0696578589752",
        "orbital_period": "1354.04896653517",
        "perihelion_distance": ".238688277836188",
        "perihelion_argument": "224.3576406090725",
        "aphelion_distance": "4.551882832261368",
        "perihelion_time": "2452258.616732643426",
        "mean_anomaly": "349.8659324066055",
        "mean_motion": ".2658692624102005",
        "equinox": "J2000",
        "orbit_class": {
            "orbit_class_type": "APO",
            "orbit_class_description": "Near-Earth asteroid orbits which cross the Earth’s orbit similar to that of 1862 Apollo",
            "orbit_class_range": "a (semi-major axis) > 1.0 AU; q (perihelion) < 1.017 AU"
        }
    },
    "is_sentry_object": false
}